{
  "type": "FeatureCollection",
  "features": [
    {
      "type": "Feature",
      "properties": {
        "norad_id": 37562,
        "name": "IRIDIUM 33 DEB",
        "group": "iridium-33-debris",
        "lat": 17.34756037889255,
        "lon": 47.26305433445636,
        "alt_km": 711.2902379893603,
        "timestamp": "2025-12-06T22:38:43.114166+00:00",
        "meta_object_name": "IRIDIUM 33 DEB",
        "meta_object_id": "1997-051XX",
        "meta_epoch": "2025-12-05T22:38:16.769760",
        "meta_mean_motion": 14.56376175,
        "meta_eccentricity": 0.00266622,
        "meta_inclination": 86.3751,
        "meta_ra_of_asc_node": 46.5643,
        "meta_arg_of_pericenter": 129.1222,
        "meta_mean_anomaly": 47.463,
        "meta_ephemeris_type": 0,
        "meta_classification_type": "U",
        "meta_norad_cat_id": 37562,
        "meta_element_set_no": 999,
        "meta_rev_at_epoch": 86229,
        "meta_bstar": 0.0018491974,
        "meta_mean_motion_dot": 8.263e-05,
        "meta_mean_motion_ddot": 0,
        "tle_line1": "1 37562U 97051XX  25339.94324965  .00008263  00000+0  18492-2 0  9993",
        "tle_line2": "2 37562  86.3751  46.5643 0026662 129.1222  47.4630 14.56376175862290"
      },
      "geometry": {
        "type": "Point",
        "coordinates": [
          47.26305433445636,
          17.34756037889255
        ]
      }
    },
    {
      "type": "Feature",
      "properties": {
        "norad_id": 37565,
        "name": "IRIDIUM 33 DEB",
        "group": "iridium-33-debris",
        "lat": -80.6507346313353,
        "lon": -145.0818187755521,
        "alt_km": 738.4794746899634,
        "timestamp": "2025-12-06T22:38:43.114179+00:00",
        "meta_object_name": "IRIDIUM 33 DEB",
        "meta_object_id": "1997-051YA",
        "meta_epoch": "2025-12-06T08:12:33.505344",
        "meta_mean_motion": 14.51477956,
        "meta_eccentricity": 0.00152608,
        "meta_inclination": 86.3496,
        "meta_ra_of_asc_node": 12.3652,
        "meta_arg_of_pericenter": 102.6626,
        "meta_mean_anomaly": 257.6286,
        "meta_ephemeris_type": 0,
        "meta_classification_type": "U",
        "meta_norad_cat_id": 37565,
        "meta_element_set_no": 999,
        "meta_rev_at_epoch": 65744,
        "meta_bstar": 0.0010565174,
        "meta_mean_motion_dot": 4.246e-05,
        "meta_mean_motion_ddot": 0,
        "tle_line1": "1 37565U 97051YA  25340.34205446  .00004246  00000+0  10565-2 0  9994",
        "tle_line2": "2 37565  86.3496  12.3652 0015260 102.6626 257.6286 14.51477956657441"
      },
      "geometry": {
        "type": "Point",
        "coordinates": [
          -145.0818187755521,
          -80.6507346313353
        ]
      }
    },
    {
      "type": "Feature",
      "properties": {
        "norad_id": 38017,
        "name": "IRIDIUM 33 DEB",
        "group": "iridium-33-debris",
        "lat": 43.59117234879296,
        "lon": 172.23205625717745,
        "alt_km": 713.8037128402766,
        "timestamp": "2025-12-06T22:38:43.114192+00:00",
        "meta_object_name": "IRIDIUM 33 DEB",
        "meta_object_id": "1997-051YD",
        "meta_epoch": "2025-12-01T06:29:11.103360",
        "meta_mean_motion": 14.48304289,
        "meta_eccentricity": 0.009214,
        "meta_inclination": 86.3439,
        "meta_ra_of_asc_node": 171.2047,
        "meta_arg_of_pericenter": 141.8586,
        "meta_mean_anomaly": 218.9187,
        "meta_ephemeris_type": 0,
        "meta_classification_type": "U",
        "meta_norad_cat_id": 38017,
        "meta_element_set_no": 999,
        "meta_rev_at_epoch": 61236,
        "meta_bstar": 0.0066574,
        "meta_mean_motion_dot": 0.00026341,
        "meta_mean_motion_ddot": 0,
        "tle_line1": "1 38017U 97051YD  25335.27026740  .00026341  00000+0  66574-2 0  9992",
        "tle_line2": "2 38017  86.3439 171.2047 0092140 141.8586 218.9187 14.48304289612362"
      },
      "geometry": {
        "type": "Point",
        "coordinates": [
          172.23205625717745,
          43.59117234879296
        ]
      }
    },
    {
      "type": "Feature",
      "properties": {
        "norad_id": 38022,
        "name": "IRIDIUM 33 DEB",
        "group": "iridium-33-debris",
        "lat": -15.163454794169551,
        "lon": 17.969902035275627,
        "alt_km": 755.4040363355662,
        "timestamp": "2025-12-06T22:38:43.114202+00:00",
        "meta_object_name": "IRIDIUM 33 DEB",
        "meta_object_id": "1997-051YJ",
        "meta_epoch": "2025-12-03T09:43:50.752992",
        "meta_mean_motion": 14.41155819,
        "meta_eccentricity": 0.00470517,
        "meta_inclination": 86.2701,
        "meta_ra_of_asc_node": 20.531,
        "meta_arg_of_pericenter": 80.0356,
        "meta_mean_anomaly": 280.615,
        "meta_ephemeris_type": 0,
        "meta_classification_type": "U",
        "meta_norad_cat_id": 38022,
        "meta_element_set_no": 999,
        "meta_rev_at_epoch": 69059,
        "meta_bstar": 0.0013840286,
        "meta_mean_motion_dot": 4.54e-05,
        "meta_mean_motion_ddot": 0,
        "tle_line1": "1 38022U 97051YJ  25337.40544853  .00004540  00000+0  13840-2 0  9990",
        "tle_line2": "2 38022  86.2701  20.5310 0047051  80.0356 280.6150 14.41155819690591"
      },
      "geometry": {
        "type": "Point",
        "coordinates": [
          17.969902035275627,
          -15.163454794169551
        ]
      }
    },
    {
      "type": "Feature",
      "properties": {
        "norad_id": 38028,
        "name": "IRIDIUM 33 DEB",
        "group": "iridium-33-debris",
        "lat": 25.592894527390534,
        "lon": 4.553216587352014,
        "alt_km": 745.7437555513634,
        "timestamp": "2025-12-06T22:38:43.114212+00:00",
        "meta_object_name": "IRIDIUM 33 DEB",
        "meta_object_id": "1997-051YQ",
        "meta_epoch": "2025-12-05T08:19:56.011584",
        "meta_mean_motion": 14.46161527,
        "meta_eccentricity": 0.00297993,
        "meta_inclination": 86.3272,
        "meta_ra_of_asc_node": 3.4836,
        "meta_arg_of_pericenter": 144.2247,
        "meta_mean_anomaly": 216.0959,
        "meta_ephemeris_type": 0,
        "meta_classification_type": "U",
        "meta_norad_cat_id": 38028,
        "meta_element_set_no": 999,
        "meta_rev_at_epoch": 65388,
        "meta_bstar": 0.00052415239,
        "meta_mean_motion_dot": 1.903e-05,
        "meta_mean_motion_ddot": 0,
        "tle_line1": "1 38028U 97051YQ  25339.34717606  .00001903  00000+0  52415-3 0  9991",
        "tle_line2": "2 38028  86.3272   3.4836 0029799 144.2247 216.0959 14.46161527653884"
      },
      "geometry": {
        "type": "Point",
        "coordinates": [
          4.553216587352014,
          25.592894527390534
        ]
      }
    },
    {
      "type": "Feature",
      "properties": {
        "norad_id": 38228,
        "name": "IRIDIUM 33 DEB",
        "group": "iridium-33-debris",
        "lat": -5.594440774708836,
        "lon": 50.5701970439057,
        "alt_km": 842.483829236332,
        "timestamp": "2025-12-06T22:38:43.114222+00:00",
        "meta_object_name": "IRIDIUM 33 DEB",
        "meta_object_id": "1997-051ZC",
        "meta_epoch": "2025-12-05T11:24:42.525216",
        "meta_mean_motion": 14.27249684,
        "meta_eccentricity": 0.0063511,
        "meta_inclination": 86.2953,
        "meta_ra_of_asc_node": 51.5576,
        "meta_arg_of_pericenter": 213.0073,
        "meta_mean_anomaly": 162.7695,
        "meta_ephemeris_type": 0,
        "meta_classification_type": "U",
        "meta_norad_cat_id": 38228,
        "meta_element_set_no": 999,
        "meta_rev_at_epoch": 84678,
        "meta_bstar": 0.00063038661,
        "meta_mean_motion_dot": 1.592e-05,
        "meta_mean_motion_ddot": 0,
        "tle_line1": "1 38228U 97051ZC  25339.47549219  .00001592  00000+0  63039-3 0  9998",
        "tle_line2": "2 38228  86.2953  51.5576 0063511 213.0073 162.7695 14.27249684846785"
      },
      "geometry": {
        "type": "Point",
        "coordinates": [
          50.5701970439057,
          -5.594440774708836
        ]
      }
    },
    {
      "type": "Feature",
      "properties": {
        "norad_id": 38241,
        "name": "IRIDIUM 33 DEB",
        "group": "iridium-33-debris",
        "lat": 60.8355441799709,
        "lon": -0.22557604320832417,
        "alt_km": 700.423240290881,
        "timestamp": "2025-12-06T22:38:43.114232+00:00",
        "meta_object_name": "IRIDIUM 33 DEB",
        "meta_object_id": "1997-051ZR",
        "meta_epoch": "2025-12-05T18:18:10.298016",
        "meta_mean_motion": 14.54799988,
        "meta_eccentricity": 0.00056722,
        "meta_inclination": 86.3224,
        "meta_ra_of_asc_node": 353.6772,
        "meta_arg_of_pericenter": 87.2865,
        "meta_mean_anomaly": 272.8992,
        "meta_ephemeris_type": 0,
        "meta_classification_type": "U",
        "meta_norad_cat_id": 38241,
        "meta_element_set_no": 999,
        "meta_rev_at_epoch": 60099,
        "meta_bstar": 0.0014749391,
        "meta_mean_motion_dot": 6.345e-05,
        "meta_mean_motion_ddot": 0,
        "tle_line1": "1 38241U 97051ZR  25339.76261919  .00006345  00000+0  14749-2 0  9997",
        "tle_line2": "2 38241  86.3224 353.6772 0005672  87.2865 272.8992 14.54799988600991"
      },
      "geometry": {
        "type": "Point",
        "coordinates": [
          -0.22557604320832417,
          60.8355441799709
        ]
      }
    }
  ]
}